{
  "type": "FeatureCollection",
  "features": [
    {
      "type": "Feature",
      "properties": {
        "norad_id": 33376,
        "name": "GALAXY 19 (G-19)",
        "group": "intelsat",
        "lat": 0.021639634445168778,
        "lon": -22.685486843110382,
        "alt_km": 35780.0147196006,
        "timestamp": "2025-12-24T22:42:21.689914+00:00",
        "meta_object_name": "GALAXY 19 (G-19)",
        "meta_object_id": "2008-045A",
        "meta_epoch": "2025-12-24T06:30:11.593728",
        "meta_mean_motion": 1.00270753,
        "meta_eccentricity": 0.00026821,
        "meta_inclination": 0.0435,
        "meta_ra_of_asc_node": 265.016,
        "meta_arg_of_pericenter": 16.4739,
        "meta_mean_anomaly": 172.1006,
        "meta_ephemeris_type": 0,
        "meta_classification_type": "U",
        "meta_norad_cat_id": 33376,
        "meta_element_set_no": 999,
        "meta_rev_at_epoch": 6315,
        "meta_bstar": 0,
        "meta_mean_motion_dot": -1.18e-06,
        "meta_mean_motion_ddot": 0,
        "tle_line1": "1 33376U 08045A   25358.27096752 -.00000118  00000+0  00000+0 0  9999",
        "tle_line2": "2 33376   0.0435 265.0160 0002682  16.4739 172.1006  1.00270753 63151"
      },
      "geometry": {
        "type": "Point",
        "coordinates": [
          -22.685486843110382,
          0.021639634445168778
        ]
      }
    },
    {
      "type": "Feature",
      "properties": {
        "norad_id": 35493,
        "name": "FM-5",
        "group": "intelsat",
        "lat": 0.006948622655234158,
        "lon": -11.850934934322186,
        "alt_km": 35790.46671678512,
        "timestamp": "2025-12-24T22:42:21.689926+00:00",
        "meta_object_name": "FM-5",
        "meta_object_id": "2009-034A",
        "meta_epoch": "2025-12-24T04:58:56.774784",
        "meta_mean_motion": 1.00270056,
        "meta_eccentricity": 9.316e-05,
        "meta_inclination": 0.0206,
        "meta_ra_of_asc_node": 292.5681,
        "meta_arg_of_pericenter": 225.4257,
        "meta_mean_anomaly": 283.5867,
        "meta_ephemeris_type": 0,
        "meta_classification_type": "U",
        "meta_norad_cat_id": 35493,
        "meta_element_set_no": 999,
        "meta_rev_at_epoch": 4488,
        "meta_bstar": 0,
        "meta_mean_motion_dot": -1.79e-06,
        "meta_mean_motion_ddot": 0,
        "tle_line1": "1 35493U 09034A   25358.20760156 -.00000179  00000+0  00000+0 0  9996",
        "tle_line2": "2 35493   0.0206 292.5681 0000931 225.4257 283.5867  1.00270056 44881"
      },
      "geometry": {
        "type": "Point",
        "coordinates": [
          -11.850934934322186,
          0.006948622655234158
        ]
      }
    },
    {
      "type": "Feature",
      "properties": {
        "norad_id": 36097,
        "name": "INTELSAT 14 (IS-14)",
        "group": "intelsat",
        "lat": 0.011316762911788344,
        "lon": 29.30918301177092,
        "alt_km": 35789.5268416444,
        "timestamp": "2025-12-24T22:42:21.689938+00:00",
        "meta_object_name": "INTELSAT 14 (IS-14)",
        "meta_object_id": "2009-064A",
        "meta_epoch": "2025-12-24T04:24:38.589408",
        "meta_mean_motion": 1.00269199,
        "meta_eccentricity": 0.00026128,
        "meta_inclination": 0.0125,
        "meta_ra_of_asc_node": 9.068,
        "meta_arg_of_pericenter": 276.4892,
        "meta_mean_anomaly": 188.5557,
        "meta_ephemeris_type": 0,
        "meta_classification_type": "U",
        "meta_norad_cat_id": 36097,
        "meta_element_set_no": 999,
        "meta_rev_at_epoch": 5885,
        "meta_bstar": 0,
        "meta_mean_motion_dot": -2.53e-06,
        "meta_mean_motion_ddot": 0,
        "tle_line1": "1 36097U 09064A   25358.18377997 -.00000253  00000+0  00000+0 0  9997",
        "tle_line2": "2 36097   0.0125   9.0680 0002612 276.4892 188.5557  1.00269199 58859"
      },
      "geometry": {
        "type": "Point",
        "coordinates": [
          29.30918301177092,
          0.011316762911788344
        ]
      }
    },
    {
      "type": "Feature",
      "properties": {
        "norad_id": 36106,
        "name": "INTELSAT 15 (IS-15)",
        "group": "intelsat",
        "lat": 0.02396661854235488,
        "lon": 159.43350697610967,
        "alt_km": 35792.003486738344,
        "timestamp": "2025-12-24T22:42:21.689950+00:00",
        "meta_object_name": "INTELSAT 15 (IS-15)",
        "meta_object_id": "2009-067A",
        "meta_epoch": "2025-12-23T23:48:35.582400",
        "meta_mean_motion": 1.00270914,
        "meta_eccentricity": 0.00022897,
        "meta_inclination": 0.0165,
        "meta_ra_of_asc_node": 21.0917,
        "meta_arg_of_pericenter": 263.9004,
        "meta_mean_anomaly": 250.09,
        "meta_ephemeris_type": 0,
        "meta_classification_type": "U",
        "meta_norad_cat_id": 36106,
        "meta_element_set_no": 999,
        "meta_rev_at_epoch": 3947,
        "meta_bstar": 0,
        "meta_mean_motion_dot": -1.64e-06,
        "meta_mean_motion_ddot": 0,
        "tle_line1": "1 36106U 09067A   25357.99207850 -.00000164  00000+0  00000+0 0  9990",
        "tle_line2": "2 36106   0.0165  21.0917 0002289 263.9004 250.0900  1.00270914 39478"
      },
      "geometry": {
        "type": "Point",
        "coordinates": [
          159.43350697610967,
          0.02396661854235488
        ]
      }
    },
    {
      "type": "Feature",
      "properties": {
        "norad_id": 36131,
        "name": "DIRECTV 12",
        "group": "intelsat",
        "lat": -0.016199547380846016,
        "lon": -28.415957736940204,
        "alt_km": 35784.38251250536,
        "timestamp": "2025-12-24T22:42:21.689962+00:00",
        "meta_object_name": "DIRECTV 12",
        "meta_object_id": "2009-075A",
        "meta_epoch": "2025-12-24T05:45:47.302848",
        "meta_mean_motion": 1.00271327,
        "meta_eccentricity": 4.374e-05,
        "meta_inclination": 0.0191,
        "meta_ra_of_asc_node": 113.367,
        "meta_arg_of_pericenter": 216.4443,
        "meta_mean_anomaly": 106.941,
        "meta_ephemeris_type": 0,
        "meta_classification_type": "U",
        "meta_norad_cat_id": 36131,
        "meta_element_set_no": 999,
        "meta_rev_at_epoch": 4479,
        "meta_bstar": 0,
        "meta_mean_motion_dot": -8.3e-07,
        "meta_mean_motion_ddot": 0,
        "tle_line1": "1 36131U 09075A   25358.24013082 -.00000083  00000+0  00000+0 0  9998",
        "tle_line2": "2 36131   0.0191 113.3670 0000437 216.4443 106.9410  1.00271327 44794"
      },
      "geometry": {
        "type": "Point",
        "coordinates": [
          -28.415957736940204,
          -0.016199547380846016
        ]
      }
    },
    {
      "type": "Feature",
      "properties": {
        "norad_id": 36397,
        "name": "INTELSAT 16 (IS-16)",
        "group": "intelsat",
        "lat": 0.003906126706372577,
        "lon": -1.869982762348953,
        "alt_km": 35785.60196091645,
        "timestamp": "2025-12-24T22:42:21.689974+00:00",
        "meta_object_name": "INTELSAT 16 (IS-16)",
        "meta_object_id": "2010-006A",
        "meta_epoch": "2025-12-24T05:27:09.190080",
        "meta_mean_motion": 1.00271444,
        "meta_eccentricity": 0.00020354,
        "meta_inclination": 0.0102,
        "meta_ra_of_asc_node": 330.7873,
        "meta_arg_of_pericenter": 301.5522,
        "meta_mean_anomaly": 186.2641,
        "meta_ephemeris_type": 0,
        "meta_classification_type": "U",
        "meta_norad_cat_id": 36397,
        "meta_element_set_no": 999,
        "meta_rev_at_epoch": 5790,
        "meta_bstar": 0,
        "meta_mean_motion_dot": -2.24e-06,
        "meta_mean_motion_ddot": 0,
        "tle_line1": "1 36397U 10006A   25358.22718970 -.00000224  00000+0  00000+0 0  9991",
        "tle_line2": "2 36397   0.0102 330.7873 0002035 301.5522 186.2641  1.00271444 57904"
      },
      "geometry": {
        "type": "Point",
        "coordinates": [
          -1.869982762348953,
          0.003906126706372577
        ]
      }
    },
    {
      "type": "Feature",
      "properties": {
        "norad_id": 37185,
        "name": "XM-5",
        "group": "intelsat",
        "lat": 0.029054650730594433,
        "lon": -40.90247288033009,
        "alt_km": 35795.484923330034,
        "timestamp": "2025-12-24T22:42:21.689986+00:00",
        "meta_object_name": "XM-5",
        "meta_object_id": "2010-053A",
        "meta_epoch": "2025-12-24T05:59:38.935680",
        "meta_mean_motion": 1.0026917,
        "meta_eccentricity": 0.00020949,
        "meta_inclination": 0.0667,
        "meta_ra_of_asc_node": 269.9385,
        "meta_arg_of_pericenter": 238.903,
        "meta_mean_anomaly": 278.9005,
        "meta_ephemeris_type": 0,
        "meta_classification_type": "U",
        "meta_norad_cat_id": 37185,
        "meta_element_set_no": 999,
        "meta_rev_at_epoch": 5572,
        "meta_bstar": 0,
        "meta_mean_motion_dot": -2e-08,
        "meta_mean_motion_ddot": 0,
        "tle_line1": "1 37185U 10053A   25358.24975620 -.00000002  00000+0  00000+0 0  9992",
        "tle_line2": "2 37185   0.0667 269.9385 0002094 238.9030 278.9005  1.00269170 55723"
      },
      "geometry": {
        "type": "Point",
        "coordinates": [
          -40.90247288033009,
          0.029054650730594433
        ]
      }
    }
  ]
}